NORAD_CAT_ID,OBJECT_NAME,OBJECT_TYPE,EPOCH,MEAN_MOTION,ECCENTRICITY,INCLINATION,RA_OF_ASC_NODE,ARG_OF_PERICENTER,MEAN_ANOMALY,BSTAR,MEAN_MOTION_DOT,MEAN_MOTION_DDOT,TLE_LINE0,TLE_LINE1,TLE_LINE2,SEMIMAJOR_AXIS,PERIOD,APOGEE,PERIGEE,DECAYED
52657.0,STARLINK-4084,PAYLOAD,2023-10-03 03:42:08,15.08845665,0.0001713,53.2159,182.9111,97.7219,262.3968,0.00052044,8.006e-05,0.0,0 STARLINK-4084,1 52657U 22053B   23276.15426467  .00008006  00000-0  52044-3 0  9994,2 52657  53.2159 182.9111 0001713  97.7219 262.3968 15.08845665 77279,6917.863,95.437,540.913,538.543,0.0
52657.0,STARLINK-4084,PAYLOAD,2023-10-03 21:11:32,15.0864247,0.0001548,53.2161,179.6413,154.937,205.1697,-0.0020258,-0.00032211,0.0,0 STARLINK-4084,1 52657U 22053B   23276.88301129 -.00032211  00000-0 -20258-2 0  9999,2 52657  53.2161 179.6413 0001548 154.9370 205.1697 15.08642470 77385,6918.484,95.45,541.42,539.278,0.0
52657.0,STARLINK-4084,PAYLOAD,2023-10-04 00:22:20,15.08616369,0.0001913,53.2164,179.0472,161.8276,198.2785,0.001601,0.00025128,0.0,0 STARLINK-4084,1 52657U 22053B   23277.01551784  .00025128  00000-0  16010-2 0  9997,2 52657  53.2164 179.0472 0001913 161.8276 198.2785 15.08616369 77406,6918.564,95.452,541.753,539.106,0.0
52657.0,STARLINK-4084,PAYLOAD,2023-10-04 08:19:37,15.07983805,0.0001984,53.2163,177.5618,72.3525,287.7683,-0.0063487,-0.00097655,0.0,0 STARLINK-4084,1 52657U 22053B   23277.34696117 -.00097655  00000-0 -63487-2 0  9999,2 52657  53.2163 177.5618 0001984  72.3525 287.7683 15.07983805 77458,6920.499,95.492,543.737,540.991,0.0
52657.0,STARLINK-4084,PAYLOAD,2023-10-04 22:00:01,15.07218521,0.0001237,53.2161,175.0104,72.94,140.8881,-0.0023997,-0.00036637,0.0,0 STARLINK-4084,1 52657U 22053B   23277.91668981 -.00036637  00000-0 -23997-2 0  9995,2 52657  53.2161 175.0104 0001237  72.9400 140.8881 15.07218521 77532,6922.841,95.54,545.562,543.85,0.0
52657.0,STARLINK-4084,PAYLOAD,2023-10-05 14:00:01,15.07170906,0.0001078,53.2157,172.0242,93.6165,139.3995,0.0047338,0.00072448,0.0,0 STARLINK-4084,1 52657U 22053B   23278.58334491  .00072448  00000-0  47338-2 0  9998,2 52657  53.2157 172.0242 0001078  93.6165 139.3995 15.07170906 77632,6922.987,95.543,545.598,544.106,0.0
52657.0,STARLINK-4084,PAYLOAD,2023-10-05 22:00:00,15.07261814,0.0001131,53.2158,170.533,95.6158,147.0208,-0.0066993,-0.00100978,0.0,0 STARLINK-4084,1 52657U 22053B   23278.91667824 -.00100978  00000-0 -66993-2 0  9994,2 52657  53.2158 170.5330 0001131  95.6158 147.0208 15.07261814  5822,6922.708,95.537,545.356,543.791,0.0
52657.0,STARLINK-4084,PAYLOAD,2023-10-06 06:00:00,15.071772,0.000108,53.2154,169.0405,98.1819,154.1138,0.0010398,0.00015568,0.0,0 STARLINK-4084,1 52657U 22053B   23279.25001157  .00015568  00000-0  10398-2 0  9999,2 52657  53.2154 169.0405 0001080  98.1819 154.1138 15.07177200 77734,6922.968,95.543,545.58,544.085,0.0
52657.0,STARLINK-4084,PAYLOAD,2023-10-06 14:00:01,15.07162858,0.0001156,53.2154,167.5464,114.2743,147.687,0.0047234,0.00072271,0.0,0 STARLINK-4084,1 52657U 22053B   23279.58335648  .00072271  00000-0  47234-2 0  9993,2 52657  53.2154 167.5464 0001156 114.2743 147.6870 15.07162858  5758,6923.011,95.544,545.677,544.076,0.0
52657.0,STARLINK-4084,PAYLOAD,2023-10-06 22:00:01,15.07236533,0.0001112,53.2154,166.0553,105.2915,166.277,-0.0038307,-0.00058169,0.0,0 STARLINK-4084,1 52657U 22053B   23279.91668981 -.00058169  00000-0 -38307-2 0  9992,2 52657  53.2154 166.0553 0001112 105.2915 166.2770 15.07236533  5808,6922.786,95.539,545.421,543.881,0.0
52657.0,STARLINK-4084,PAYLOAD,2023-10-07 14:00:01,15.07172815,0.0001071,53.2152,163.0687,105.3832,185.3871,0.0047093,0.00072072,0.0,0 STARLINK-4084,1 52657U 22053B   23280.58334491  .00072072  00000-0  47093-2 0  9992,2 52657  53.2152 163.0687 0001071 105.3832 185.3871 15.07172815 77933,6922.981,95.543,545.587,544.105,0.0
52657.0,STARLINK-4084,PAYLOAD,2023-10-07 22:00:00,15.07242908,0.0001117,53.2153,161.5777,94.1197,206.2686,-0.004926,-0.00074561,0.0,0 STARLINK-4084,1 52657U 22053B   23280.91667824 -.00074561  00000-0 -49260-2 0  9993,2 52657  53.2153 161.5777 0001117  94.1197 206.2686 15.07242908  5701,6922.766,95.539,545.405,543.858,0.0
52657.0,STARLINK-4084,PAYLOAD,2023-10-08 01:26:50,15.07208433,0.0001497,53.2163,160.9321,90.8832,269.2331,0.00019074,2.621e-05,0.0,0 STARLINK-4084,1 52657U 22053B   23281.06030223  .00002621  00000-0  19074-3 0  9994,2 52657  53.2163 160.9321 0001497  90.8832 269.2331 15.07208433 78015,6922.872,95.541,545.773,543.701,0.0
52657.0,STARLINK-4084,PAYLOAD,2023-10-08 09:24:16,15.07209488,0.0001196,53.2157,159.4483,94.2513,265.8615,0.00022872,3.2e-05,0.0,0 STARLINK-4084,1 52657U 22053B   23281.39186066  .00003200  00000-0  22872-3 0  9991,2 52657  53.2157 159.4483 0001196  94.2513 265.8615 15.07209488 78063,6922.869,95.541,545.562,543.906,0.0
52657.0,STARLINK-4084,PAYLOAD,2023-10-08 22:08:11,15.07213767,0.0001188,53.2151,157.0734,92.8199,267.2928,0.00032769,4.709e-05,0.0,0 STARLINK-4084,1 52657U 22053B   23281.92235472  .00004709  00000-0  32769-3 0  9997,2 52657  53.2151 157.0734 0001188  92.8199 267.2928 15.07213767 78142,6922.856,95.541,545.543,543.898,0.0
52657.0,STARLINK-4084,PAYLOAD,2023-10-09 09:16:37,15.07201384,0.0001523,53.217,154.9941,85.137,274.9795,-9.1984e-06,-4.23e-06,0.0,0 STARLINK-4084,1 52657U 22053B   23282.38654229 -.00000423  00000-0 -91984-5 0  9990,2 52657  53.2170 154.9941 0001523  85.1370 274.9795 15.07201384 78215,6922.894,95.541,545.813,543.704,0.0
52657.0,STARLINK-4084,PAYLOAD,2023-10-09 18:49:33,15.07202979,0.0001526,53.2152,153.2128,86.4417,273.6749,7.9877e-05,9.33e-06,0.0,0 STARLINK-4084,1 52657U 22053B   23282.78441487  .00000933  00000-0  79877-4 0  9994,2 52657  53.2152 153.2128 0001526  86.4417 273.6749 15.07202979 78275,6922.889,95.541,545.81,543.697,0.0
52657.0,STARLINK-4084,PAYLOAD,2023-10-09 22:00:32,15.0720467,0.0001263,53.2167,152.6189,92.9405,267.1731,0.000115,1.468e-05,0.0,0 STARLINK-4084,1 52657U 22053B   23282.91703797  .00001468  00000-0  11500-3 0  9996,2 52657  53.2167 152.6189 0001263  92.9405 267.1731 15.07204670 78299,6922.883,95.541,545.623,543.874,0.0
52657.0,STARLINK-4084,PAYLOAD,2023-10-10 01:11:30,15.07207071,0.0001277,53.2164,152.0238,99.2252,260.8884,0.00020583,2.851e-05,0.0,0 STARLINK-4084,1 52657U 22053B   23283.04966118  .00002851  00000-0  20583-3 0  9997,2 52657  53.2164 152.0238 0001277  99.2252 260.8884 15.07207071 78310,6922.876,95.541,545.625,543.857,0.0
52657.0,STARLINK-4084,PAYLOAD,2023-10-10 21:52:52,15.07214595,0.0001276,53.2165,148.1641,85.8078,274.3059,0.00041312,6.012e-05,0.0,0 STARLINK-4084,1 52657U 22053B   23283.91171481  .00006012  00000-0  41312-3 0  9990,2 52657  53.2165 148.1641 0001276  85.8078 274.3059 15.07214595 78448,6922.853,95.54,545.601,543.835,0.0
52657.0,STARLINK-4084,PAYLOAD,2023-10-11 18:34:13,15.07205306,0.0001411,53.2165,144.3035,101.8605,258.2544,0.00012852,1.673e-05,0.0,0 STARLINK-4084,1 52657U 22053B   23284.77377275  .00001673  00000-0  12852-3 0  9999,2 52657  53.2165 144.3035 0001411 101.8605 258.2544 15.07205306 78573,6922.882,95.541,545.723,543.77,0.0
52657.0,STARLINK-4084,PAYLOAD,2023-10-12 07:18:08,15.07206476,0.0001277,53.2165,141.9288,89.6789,270.4349,0.00011104,1.407e-05,0.0,0 STARLINK-4084,1 52657U 22053B   23285.30426864  .00001407  00000-0  11104-3 0  9992,2 52657  53.2165 141.9288 0001277  89.6789 270.4349 15.07206476 78659,6922.878,95.541,545.627,543.859,0.0
52657.0,STARLINK-4084,PAYLOAD,2023-10-12 20:02:03,15.07209933,0.0001285,53.2163,139.5537,90.2698,269.844,9.1676e-05,1.113e-05,0.0,0 STARLINK-4084,1 52657U 22053B   23285.83476211  .00001113  00000-0  91676-4 0  9998,2 52657  53.2163 139.5537 0001285  90.2698 269.8440 15.07209933 78737,6922.867,95.541,545.622,543.843,0.0
52657.0,STARLINK-4084,PAYLOAD,2023-10-12 21:37:32,15.07212259,0.0001331,53.2166,139.2568,93.7899,266.3245,0.00013004,1.697e-05,0.0,0 STARLINK-4084,1 52657U 22053B   23285.90107271  .00001697  00000-0  13004-3 0  9998,2 52657  53.2166 139.2568 0001331  93.7899 266.3245 15.07212259 78745,6922.86,95.541,545.647,543.804,0.0
52657.0,STARLINK-4084,PAYLOAD,2023-10-13 07:10:29,15.07202416,0.0001561,53.2169,137.4738,99.2385,260.8783,6.8793e-05,7.64e-06,0.0,0 STARLINK-4084,1 52657U 22053B   23286.29894906  .00000764  00000-0  68793-4 0  9999,2 52657  53.2169 137.4738 0001561  99.2385 260.8783 15.07202416 78800,6922.89,95.541,545.836,543.675,0.0
52657.0,STARLINK-4084,PAYLOAD,2023-10-13 21:29:52,15.07215633,0.0001242,53.2158,134.803,98.1988,261.9145,0.00028277,4.025e-05,0.0,0 STARLINK-4084,1 52657U 22053B   23286.89574958  .00004025  00000-0  28277-3 0  9993,2 52657  53.2158 134.8030 0001242  98.1988 261.9145 15.07215633 78895,6922.85,95.54,545.575,543.855,0.0
52657.0,STARLINK-4084,PAYLOAD,2023-10-13 23:05:21,15.07220806,0.0001299,53.2159,134.506,98.4976,261.6162,0.00039742,5.774e-05,0.0,0 STARLINK-4084,1 52657U 22053B   23286.96205992  .00005774  00000-0  39742-3 0  9991,2 52657  53.2159 134.5060 0001299  98.4976 261.6162 15.07220806 78904,6922.834,95.54,545.598,543.8,0.0
52657.0,STARLINK-4084,PAYLOAD,2023-10-14 07:02:49,15.07208895,0.0001546,53.2159,133.0188,101.0186,259.0979,0.00013086,1.709e-05,0.0,0 STARLINK-4084,1 52657U 22053B   23287.29362361  .00001709  00000-0  13086-3 0  9999,2 52657  53.2159 133.0188 0001546 101.0186 259.0979 15.07208895 78954,6922.871,95.541,545.806,543.665,0.0
52657.0,STARLINK-4084,PAYLOAD,2023-10-14 13:24:46,15.07208993,0.0001797,53.2159,131.8339,85.5969,274.5227,0.00015396,2.061e-05,0.0,0 STARLINK-4084,1 52657U 22053B   23287.55887250  .00002061  00000-0  15396-3 0  9995,2 52657  53.2159 131.8339 0001797  85.5969 274.5227 15.07208993 78992,6922.87,95.541,545.979,543.491,0.0
52657.0,STARLINK-4084,PAYLOAD,2023-10-14 21:22:13,15.07209976,0.0001326,53.2154,130.3488,88.4228,271.6915,9.5508e-05,1.171e-05,0.0,0 STARLINK-4084,1 52657U 22053B   23287.89043024  .00001171  00000-0  95508-4 0  9990,2 52657  53.2154 130.3488 0001326  88.4228 271.6915 15.07209976 79045,6922.867,95.541,545.65,543.814,0.0
